[{"OBJECT_NAME":"IRIDIUM 145","OBJECT_ID":"2018-030E","EPOCH":"2026-03-09T23:33:38.409120","MEAN_MOTION":14.34213927,"ECCENTRICITY":0.00019039,"INCLINATION":86.4013,"RA_OF_ASC_NODE":331.8973,"ARG_OF_PERICENTER":94.1139,"MEAN_ANOMALY":266.0275,"EPHEMERIS_TYPE":0,"CLASSIFICATION_TYPE":"U","NORAD_CAT_ID":43253,"ELEMENT_SET_NO":999,"REV_AT_EPOCH":41590,"BSTAR":0.00011521042,"MEAN_MOTION_DOT":3.42e-6,"MEAN_MOTION_DDOT":0},{"OBJECT_NAME":"SL-8 R\/B","OBJECT_ID":"1986-030B","EPOCH":"2026-03-09T14:26:46.097088","MEAN_MOTION":14.37304739,"ECCENTRICITY":0.0013282,"INCLINATION":74.0247,"RA_OF_ASC_NODE":129.1962,"ARG_OF_PERICENTER":51.3113,"MEAN_ANOMALY":57.8119,"EPHEMERIS_TYPE":0,"CLASSIFICATION_TYPE":"U","NORAD_CAT_ID":16682,"ELEMENT_SET_NO":999,"REV_AT_EPOCH":8844,"BSTAR":9.8625e-5,"MEAN_MOTION_DOT":2.68e-6,"MEAN_MOTION_DDOT":0}]
